{
    "links": {
        "self": "http://www.neowsapp.com/rest/v1/neo/3596043?api_key=iIulBulltgU6a56xZRHN4H3l9WmuAYTsLGpBGhQ2"
    },
    "id": "3596043",
    "neo_reference_id": "3596043",
    "name": "(2012 BK14)",
    "designation": "2012 BK14",
    "nasa_jpl_url": "http://ssd.jpl.nasa.gov/sbdb.cgi?sstr=3596043",
    "absolute_magnitude_h": 27.4,
    "estimated_diameter": {
        "kilometers": {
            "estimated_diameter_min": 0.0088014652,
            "estimated_diameter_max": 0.0196806745
        },
        "meters": {
            "estimated_diameter_min": 8.801465209,
            "estimated_diameter_max": 19.6806745089
        },
        "miles": {
            "estimated_diameter_min": 0.0054689752,
            "estimated_diameter_max": 0.0122290004
        },
        "feet": {
            "estimated_diameter_min": 28.8761991163,
            "estimated_diameter_max": 64.5691441559
        }
    },
    "is_potentially_hazardous_asteroid": false,
    "close_approach_data": [
        {
            "close_approach_date": "2012-01-15",
            "close_approach_date_full": "2012-Jan-15 06:38",
            "epoch_date_close_approach": 1326609480000,
            "relative_velocity": {
                "kilometers_per_second": "5.2064448078",
                "kilometers_per_hour": "18743.2013079438",
                "miles_per_hour": "11646.2963904832"
            },
            "miss_distance": {
                "astronomical": "0.010936277",
                "lunar": "4.254211753",
                "kilometers": "1636043.74492999",
                "miles": "1016590.443174262"
            },
            "orbiting_body": "Earth"
        },
        {
            "close_approach_date": "2012-01-15",
            "close_approach_date_full": "2012-Jan-15 08:21",
            "epoch_date_close_approach": 1326615660000,
            "relative_velocity": {
                "kilometers_per_second": "6.2441757652",
                "kilometers_per_hour": "22479.0327545502",
                "miles_per_hour": "13967.5967690704"
            },
            "miss_distance": {
                "astronomical": "0.0084647138",
                "lunar": "3.2927736682",
                "kilometers": "1266303.154639606",
                "miles": "786844.2938383228"
            },
            "orbiting_body": "Moon"
        }
    ],
    "orbital_data": {
        "orbit_id": "4",
        "orbit_determination_date": "2017-04-06 08:51:18",
        "first_observation_date": "2012-01-21",
        "last_observation_date": "2012-01-21",
        "data_arc_in_days": null,
        "observations_used": 11,
        "orbit_uncertainty": "9",
        "minimum_orbit_intersection": ".00189732",
        "jupiter_tisserand_invariant": "6.170",
        "epoch_osculation": "2455947.5",
        "eccentricity": ".183756093720193",
        "semi_major_axis": ".9783988791843621",
        "inclination": "1.464600152257667",
        "ascending_node_longitude": "118.7478215940977",
        "orbital_period": "353.4861047005591",
        "perihelion_distance": ".7986121230452287",
        "perihelion_argument": "253.3565047730388",
        "aphelion_distance": "1.158185635323495",
        "perihelion_time": "2455861.466285778053",
        "mean_anomaly": "87.61910781793716",
        "mean_motion": "1.018427585166209",
        "equinox": "J2000",
        "orbit_class": {
            "orbit_class_type": "ATE",
            "orbit_class_description": "Near-Earth asteroid orbits similar to that of 2062 Aten",
            "orbit_class_range": "a (semi-major axis) < 1.0 AU; q (perihelion) > 0.983 AU"
        }
    },
    "is_sentry_object": false
}